[{"OBJECT_NAME":"LEMUR-2-THEFALCONER","OBJECT_ID":"2025-052BG","EPOCH":"2026-03-09T22:50:08.545056","MEAN_MOTION":14.96514677,"ECCENTRICITY":0.00021143,"INCLINATION":97.6968,"RA_OF_ASC_NODE":322.9473,"ARG_OF_PERICENTER":10.9074,"MEAN_ANOMALY":349.2193,"EPHEMERIS_TYPE":0,"CLASSIFICATION_TYPE":"U","NORAD_CAT_ID":63264,"ELEMENT_SET_NO":999,"REV_AT_EPOCH":5384,"BSTAR":0.00055972494,"MEAN_MOTION_DOT":6.306e-5,"MEAN_MOTION_DDOT":0},{"OBJECT_NAME":"STARLINK-35982","OBJECT_ID":"2025-280H","EPOCH":"2026-03-09T21:27:09.755424","MEAN_MOTION":14.98311944,"ECCENTRICITY":0.00028949,"INCLINATION":70.0018,"RA_OF_ASC_NODE":334.0542,"ARG_OF_PERICENTER":276.8858,"MEAN_ANOMALY":83.1972,"EPHEMERIS_TYPE":0,"CLASSIFICATION_TYPE":"U","NORAD_CAT_ID":66828,"ELEMENT_SET_NO":999,"REV_AT_EPOCH":1610,"BSTAR":0.00020800012,"MEAN_MOTION_DOT":2.389e-5,"MEAN_MOTION_DDOT":0}]
